{
    "links": {
        "self": "http://www.neowsapp.com/rest/v1/neo/3576891?api_key=iIulBulltgU6a56xZRHN4H3l9WmuAYTsLGpBGhQ2"
    },
    "id": "3576891",
    "neo_reference_id": "3576891",
    "name": "(2011 QV37)",
    "designation": "2011 QV37",
    "nasa_jpl_url": "http://ssd.jpl.nasa.gov/sbdb.cgi?sstr=3576891",
    "absolute_magnitude_h": 24.2,
    "estimated_diameter": {
        "kilometers": {
            "estimated_diameter_min": 0.0384197891,
            "estimated_diameter_max": 0.0859092601
        },
        "meters": {
            "estimated_diameter_min": 38.4197891064,
            "estimated_diameter_max": 85.9092601232
        },
        "miles": {
            "estimated_diameter_min": 0.0238729428,
            "estimated_diameter_max": 0.0533815229
        },
        "feet": {
            "estimated_diameter_min": 126.0491808919,
            "estimated_diameter_max": 281.8545369825
        }
    },
    "is_potentially_hazardous_asteroid": false,
    "close_approach_data": [
        {
            "close_approach_date": "2011-09-01",
            "close_approach_date_full": "2011-Sep-01 02:53",
            "epoch_date_close_approach": 1314845580000,
            "relative_velocity": {
                "kilometers_per_second": "8.0477029484",
                "kilometers_per_hour": "28971.7306141259",
                "miles_per_hour": "18001.9067252051"
            },
            "miss_distance": {
                "astronomical": "0.2466085577",
                "lunar": "95.9307289453",
                "kilometers": "36892114.955692099",
                "miles": "22923697.2475010062"
            },
            "orbiting_body": "Earth"
        }
    ],
    "orbital_data": {
        "orbit_id": "6",
        "orbit_determination_date": "2017-04-06 08:52:56",
        "first_observation_date": "2011-08-24",
        "last_observation_date": "2011-09-01",
        "data_arc_in_days": 8,
        "observations_used": 11,
        "orbit_uncertainty": "8",
        "minimum_orbit_intersection": ".244124",
        "jupiter_tisserand_invariant": "3.192",
        "epoch_osculation": "2455798.5",
        "eccentricity": ".5138842277770377",
        "semi_major_axis": "2.577711373905407",
        "inclination": "13.56962725019492",
        "ascending_node_longitude": "337.23445411",
        "orbital_period": "1511.645162577513",
        "perihelion_distance": "1.25306615509394",
        "perihelion_argument": "3.64361882382174",
        "aphelion_distance": "3.902356592716873",
        "perihelion_time": "2455806.560121821460",
        "mean_anomaly": "358.0804728996202",
        "mean_motion": ".2381511276007145",
        "equinox": "J2000",
        "orbit_class": {
            "orbit_class_type": "AMO",
            "orbit_class_description": "Near-Earth asteroid orbits similar to that of 1221 Amor",
            "orbit_class_range": "1.017 AU < q (perihelion) < 1.3 AU"
        }
    },
    "is_sentry_object": false
}